LEMUR-1                 
1 40044U 14033AL  26186.34870255  .00002834  00000+0  32917-3 0  9991
2 40044  97.7902 335.7525 0048597  20.2635 340.0495 14.85316858648168
LEMUR-2-GREENBERG       
1 42837U 17042N   26186.44570553  .00025227  00000+0  81834-3 0  9998
2 42837  97.3831   6.9935 0007251 301.4286  58.6246 15.31933266491181
LEMUR-2-ANDIS           
1 42838U 17042P   26185.97608768  .00037644  00000+0  10849-2 0  9999
2 42838  97.3686   6.7722 0007172 301.4091  58.6451 15.35609045491185
LEMUR-2-MONSON          
1 42839U 17042Q   26186.29790159  .00023973  00000+0  86312-3 0  9991
2 42839  97.4091   6.7904 0005133 291.2369  68.8323 15.28567422490935
LEMUR-2-FURIAUS         
1 42840U 17042R   26185.99456496  .00030427  00000+0  10187-2 0  9990
2 42840  97.3777   4.4585 0006801   9.0393 351.0969 15.30876648490931
LEMUR-2-PETERG          
1 42841U 17042S   26186.03627196  .00038865  00000+0  11524-2 0  9994
2 42841  97.3997  11.1039 0002785 269.8202  90.2722 15.34726677491173
LEMUR-2-DEMBITZ         
1 42842U 17042T   26186.47175137  .00025981  00000+0  87057-3 0  9996
2 42842  97.3831   7.9707 0005327 318.3139  41.7696 15.30893362491140
LEMUR-2-ZACHARY         
1 42845U 17042W   26186.06085362  .00078238  00000+0  12929-2 0  9992
2 42845  97.3586  18.0961 0002337 301.4836  58.6188 15.51963049491977
LEMUR-2-AMANDA-SVANTE   
1 48269U 21034B   26184.72218815  .00036457  00000+0  10612-2 0  9990
2 48269  97.5753 263.4542 0003869 168.8216 191.3113 15.35322295283594
LEMUR-2-SPECIAL-K       
1 48273U 21034F   26186.21823133  .00307426  00000+0  23721-2 0  9998
2 48273  97.5631 274.4583 0005658 222.9166 137.1655 15.71011365284510
LEMUR-2-EMBRIONOVIS     
1 56970U 23084AQ  26186.35658472  .00021385  00000+0  57222-3 0  9996
2 56970  97.6318 331.2609 0007664 244.9811 115.0638 15.38040861170478
LEMUR-2-DEVERILL-M-T    
1 57391U 23100F   26186.10076815  .00045721  00000+0  11163-2 0  9994
2 57391  99.4455 230.0436 0004918 341.2411  18.8647 15.40706658164006
LEMUR-2-BASS            
1 58259U 23174D   26186.23435480  .00027358  00000+0  60544-3 0  9994
2 58259  97.3843 271.2060 0007985 108.0287 252.1832 15.43743378148144
LEMUR-2-JK0903EM1407    
1 58336U 23174CJ  26186.38868949  .00032761  00000+0  53157-3 0  9992
2 58336  97.3919 277.3837 0004436  64.2078 295.9632 15.52676162148556
LEMUR-2-MJR092620       
1 58340U 23174CN  26186.22650719  .00031311  00000+0  65070-3 0  9991
2 58340  97.3972 276.5958 0006215  62.9314 297.2569 15.45587928148434
LEMUR-2-NIMBUS2000      
1 58899U 24022A   26186.07347341  .00037288  00000+0  90805-3 0  9993
2 58899  97.4091  36.3054 0009679  61.4495 298.7724 15.40789502135023
LEMUR-2-VALHALLA        
1 58900U 24022B   26186.52925662  .00021306  00000+0  52971-3 0  9990
2 58900  97.4089  36.7465 0010182  55.7361 304.4848 15.40269338135091
LEMUR-2-CAEL            
1 58903U 24022E   26186.13390337  .00029478  00000+0  70028-3 0  9996
2 58903  97.4071  37.3137 0008176  43.3757 316.8132 15.41602344135104
LEMUR-2-JOHNNYTRUONG    
1 59146U 24043BA  26185.96952882  .00066781  00000+0  76476-3 0  9999
2 59146  97.5393 338.7921 0004533 123.5420 236.6271 15.61902420130818
LEMUR-2-TOMATOKECHUP    
1 60471U 24149D   26186.21554149  .00018596  00000+0  52481-3 0  9993
2 60471  97.3792 268.3123 0002842 140.6819 219.4632 15.36432698104938
LEMUR-2-STELLA          
1 60533U 24149BT  26186.21499767  .00020389  00000+0  11816-2 0  9995
2 60533  97.6730 268.7532 0001311 102.7190 257.4187 15.12224720103228
LEMUR-2-MARHISYAM       
1 60536U 24149BW  26186.20202322  .00018192  00000+0  10722-2 0  9990
2 60536  97.6873 269.2070 0002987  85.7568 274.4003 15.11636815103206
LEMUR-2-AHMED-ASRAR     
1 60576U 24149DN  26186.21857125  .00021275  00000+0  12012-2 0  9992
2 60576  97.6999 271.3871 0000339 289.1354  70.9839 15.13151703103299
LEMUR-2-LLOYD           
1 60577U 24149DP  26186.20654846  .00018290  00000+0  11392-2 0  9990
2 60577  97.6740 267.3488 0005181  95.5676 264.6143 15.09618294103118
LEMUR-2-SQUIRRELCOMM    
1 60578U 24149DQ  26186.18010105  .00011441  00000+0  75981-3 0  9998
2 60578  97.6700 267.0364 0005001   3.1897 356.9362 15.07368905103113
LEMUR-2-SIERRINI        
1 60579U 24149DR  26186.16291553  .00020729  00000+0  12296-2 0  9993
2 60579  97.6839 268.8385 0006546 116.1139 244.0765 15.11361742103175
LEMUR-2-WILSON          
1 62694U 25009CP  26186.16396382  .00004183  00000+0  38521-3 0  9991
2 62694  97.7019 264.3134 0002728  10.9228 349.2051 14.95249439 80042
LEMUR-2-STAR-FOX        
1 62696U 25009CR  26186.20585590  .00013346  00000+0  10014-2 0  9996
2 62696  97.6931 267.6866 0003659  74.4899 285.6730 15.02759310 80261
LEMUR-2-ARIANNA         
1 62699U 25009CU  26186.20432215  .00013715  00000+0  10289-2 0  9998
2 62699  97.6871 267.4455 0004007  79.2350 280.9326 15.02758105 80262
LEMUR-2-ALISIA          
1 62706U 25009DB  26186.17881244  .00015623  00000+0  11618-2 0  9990
2 62706  97.6947 268.2261 0003293 161.8369 198.2974 15.03062515102868
